OBJECT_NAME,OBJECT_ID,EPOCH,MEAN_MOTION,ECCENTRICITY,INCLINATION,RA_OF_ASC_NODE,ARG_OF_PERICENTER,MEAN_ANOMALY,EPHEMERIS_TYPE,CLASSIFICATION_TYPE,NORAD_CAT_ID,ELEMENT_SET_NO,REV_AT_EPOCH,BSTAR,MEAN_MOTION_DOT,MEAN_MOTION_DDOT
D-STAR ONE (SPARROW),2018-111F,2026-06-18T18:48:02.227104,15.74859073,.00044174,97.6111,110.7740,114.7601,245.4123,0,U,43881,999,41162,.83882541E-3,.125097E-2,0
JILIN-1 09,2019-005B,2026-06-18T22:57:53.047008,15.20527091,.00037798,97.4742,264.9043,91.0725,269.0944,0,U,43943,999,40941,.16876017E-3,.3622E-4,0
JILIN-1 10,2019-005E,2026-06-18T23:06:38.902464,15.25737534,.00065575,97.4788,268.7672,271.2463,88.8024,0,U,43946,999,40958,.18112317E-3,.4548E-4,0
EGYPTSAT-A (MISRSAT-A),2019-008A,2026-06-18T23:28:36.650208,14.72309274,.00013361,98.0190,234.7149,99.1111,261.0247,0,U,44047,999,39350,.53807599E-4,.291E-5,0
EMISAT,2019-018A,2026-06-19T00:22:30.728352,14.43687451,.00178355,98.4642,228.8064,208.8240,151.1966,0,U,44078,999,38032,.19587249E-4,.22E-6,0
JILIN-1 GAOFEN 3A,2019-032C,2026-06-18T21:50:35.818656,15.32659329,.00063825,44.9756,347.4541,304.1819,55.8461,0,U,44312,999,38810,.29022272E-3,.9036E-4,0
WT 1B,2019-032G,2026-06-18T23:10:27.132384,15.27208927,.00100031,44.9719,51.2321,257.6818,102.2945,0,U,44316,999,38735,.28299816E-3,.7409E-4,0
PROX-1,2019-036A,2026-06-17T22:15:37.530144,14.90623480,.00057424,23.9948,109.3054,44.3809,315.7150,0,U,44339,999,37358,.10553694E-2,.10882E-3,0
NPSAT1,2019-036B,2026-06-18T19:25:14.223360,14.74588590,.00070707,23.9979,207.1975,225.8728,134.1187,0,U,44340,999,37273,.48206574E-3,.3532E-4,0
FORMOSAT 7-3,2019-036E,2026-06-18T08:57:40.720608,15.09805082,.0000316,23.9974,170.3761,298.1513,61.8958,0,U,44343,999,38342,.16102E-3,.3016E-4,0
FORMOSAT 7-1,2019-036L,2026-06-18T21:56:00.705120,14.96511511,.0000668,23.9989,20.7527,173.6453,186.4056,0,U,44349,999,38491,.15843827E-3,.2147E-4,0
FORMOSAT 7-4,2019-036M,2026-06-18T22:28:23.071296,14.96503544,.0001041,23.9980,82.7050,199.7513,160.2947,0,U,44350,999,38433,.15170848E-3,.2069E-4,0
FORMOSAT 7-2,2019-036N,2026-06-18T00:36:20.150208,14.96501020,.00006628,23.9964,143.1646,170.5801,189.4713,0,U,44351,999,38371,.14648673E-3,.2008E-4,0
FORMOSAT 7-6,2019-036Q,2026-06-18T18:12:09.133056,14.96517563,.00013978,23.9990,319.0386,106.6528,253.4127,0,U,44353,999,38205,.16763428E-3,.2255E-4,0
FORMOSAT 7-5,2019-036V,2026-06-18T22:27:25.870176,14.96523522,.0000446,23.9983,256.5948,125.5681,234.4862,0,U,44358,999,38261,.14134824E-3,.1949E-4,0
METEOR-M2 2,2019-038A,2026-06-18T22:20:02.069664,14.24366792,.00019957,98.9145,157.2420,45.5594,314.5747,0,U,44387,999,36154,.59211669E-4,.91E-6,0
COSMOS 2535,2019-039A,2026-06-19T00:29:13.221024,14.91945543,.00077378,97.5765,198.1139,195.9198,164.1779,0,U,44421,999,37691,.10295333E-3,.989E-5,0
GLOBAL-4,2019-054E,2026-06-18T20:46:22.467648,15.64546592,.00057897,45.0042,226.7147,345.3319,14.7410,0,U,44499,999,38062,.37593847E-3,.36955E-3,0
ZY-1 02D,2019-059A,2026-06-18T11:06:46.406304,14.35798543,.00035054,98.5262,230.9235,50.6973,309.4523,0,U,44528,999,35452,.52042879E-4,.107E-5,0
TAURUS-1 (JINNIUZUO 1),2019-059C,2026-06-18T22:36:30.792384,14.72109004,.00073764,98.6418,334.8777,309.7678,50.2877,0,U,44530,999,35890,.6026135E-3,.3738E-4,0
ZHUHAI-1 03B,2019-060C,2026-06-18T23:40:05.178720,15.54170894,.00073543,97.5535,327.8481,310.1655,49.8954,0,U,44536,999,37660,.37450837E-3,.24322E-3,0
ZHUHAI-1 03D,2019-060E,2026-06-18T23:12:33.266880,15.49834032,.00065793,97.5401,319.9340,292.7672,67.2883,0,U,44538,999,37635,.44663805E-3,.24849E-3,0
ZHUHAI-1 03E,2019-060F,2026-06-18T22:21:43.055712,15.41112119,.00057526,97.5622,319.9390,27.4114,332.7435,0,U,44539,999,37603,.32485945E-3,.1337E-3,0
ATLAS 5 CENTAUR DEB,2018-079BG,2026-06-18T09:25:28.808256,1.77423701,.47216468,13.6247,39.1831,299.4108,21.6353,0,U,44694,999,4658,0,-.108E-5,0
GAOFEN-7,2019-072A,2026-06-18T23:23:54.873024,15.21274671,.00186637,97.2424,231.3751,35.4547,324.7926,0,U,44703,999,36791,.15177293E-3,.334E-4,0
JILIN-1 GAOFEN 2A,2019-075A,2026-06-18T22:55:35.502528,15.39349059,.00073956,97.4964,253.7866,82.4024,277.8061,0,U,44777,999,36515,.29109873E-3,.11297E-3,0
NINGXIA-1 1,2019-076A,2026-06-18T23:06:44.906400,14.02038449,.00107444,45.0044,171.9158,172.0725,188.0281,0,U,44779,999,33810,.22102794E-4,-.96E-6,0
NINGXIA-1 5,2019-076E,2026-06-18T23:25:48.156384,14.02085873,.00101767,45.0031,171.1977,161.9764,198.1432,0,U,44783,999,33802,-.33070534E-4,-.181E-5,0
KL-ALPHA A,2019-077A,2026-06-18T23:09:29.623680,13.56043137,.00133148,88.9245,222.3704,101.5724,258.6925,0,U,44785,999,32597,.21044201E-4,.27E-6,0
CARTOSAT-3,2019-081A,2026-06-18T22:27:17.814240,15.19287625,.00133793,97.4299,231.7751,142.4558,217.7613,0,U,44804,999,36373,.75953291E-4,.1537E-4,0
JILIN-1 GAOFEN 2B,2019-086A,2026-06-18T22:10:17.577120,15.20726079,.00127743,97.4879,241.9039,317.6842,42.3407,0,U,44836,999,36075,.20538117E-3,.4456E-4,0
TIANQIN 1 (CAS-6),2019-093A,2026-06-18T23:06:22.888224,14.95438661,.00120052,97.7804,253.7897,52.1849,308.0457,0,U,44879,999,35231,.14546445E-3,.1552E-4,0
ETRSS-1,2019-093B,2026-06-18T23:15:27.959040,14.95871154,.00121838,97.7820,254.2564,52.8181,307.4150,0,U,44880,999,35232,.15429421E-3,.1668E-4,0
TIANYAN 01,2019-093C,2026-06-18T23:55:25.013856,14.86519235,.00150688,97.7532,242.1850,81.5238,278.7686,0,U,44881,999,35168,.4202895E-5,-.16E-6,0
TIANYAN 02,2019-093D,2026-06-18T23:32:24.520704,15.05245061,.00139594,97.7940,264.7883,24.3736,335.8147,0,U,44882,999,35288,.33317406E-3,.4705E-4,0
CBERS 4A,2019-093E,2026-06-18T20:18:01.020096,14.81398712,.00006313,98.0191,237.2875,47.2238,312.9028,0,U,44883,999,35132,-.33221984E-4,-.313E-5,0
WEILAI 1R,2019-093F,2026-06-18T23:43:08.104800,15.00654555,.00177564,97.7860,259.8762,31.4781,328.7502,0,U,44884,999,35269,.18937145E-3,.2341E-4,0
FLORIPASAT-1,2019-093G,2026-06-18T22:55:47.118144,15.03883120,.00124775,97.7909,264.1972,66.3683,293.8851,0,U,44885,999,35291,.25547768E-3,.3461E-4,0
SHUNTIAN,2019-093H,2026-06-18T22:45:14.523264,14.95168514,.0013232,97.8020,258.0998,62.6885,297.5681,0,U,44886,999,35244,.14716238E-3,.156E-4,0
2019-093L,2019-093L,2026-06-18T22:16:18.696288,14.94542513,.0012982,97.7556,248.1690,49.8817,310.3539,0,U,44889,999,35206,.12959067E-3,.1345E-4,0
ELEKTRO-L 3,2019-095A,2026-06-18T23:32:56.370336,1.00271373,.00009459,0.2627,81.5194,352.8961,261.9857,0,U,44903,999,2372,0,-.102E-5,0
GONETS-M 14,2019-096A,2026-06-18T23:31:24.803616,12.42869917,.00135935,82.5240,83.5297,144.0553,216.1444,0,U,44905,999,29390,.45387321E-3,.73E-6,0
GONETS-M 15,2019-096B,2026-06-18T22:17:49.778304,12.42871501,.001496,82.5260,84.0232,167.5387,192.6066,0,U,44906,999,29386,.41015308E-3,.67E-6,0
GONETS-M 16,2019-096C,2026-06-18T22:55:32.221056,12.42891738,.00098526,82.5206,82.9585,210.4110,149.6400,0,U,44907,999,29385,.47257983E-3,.75E-6,0
RS-44 & BREEZE-KM R/B,2019-096E,2026-06-18T23:02:00.556224,12.79748868,.02182365,82.5220,338.5268,140.0360,221.7037,0,U,44909,999,30257,-.14649278E-4,.9E-7,0
JILIN-1 KUANFU 01,2020-003A,2026-06-18T22:35:38.418432,15.10732854,.00082247,97.5028,243.8627,300.6182,59.4236,0,U,45016,999,35559,.15262358E-3,.2468E-4,0
XINGYUN-2 01,2020-028A,2026-06-18T22:17:53.974752,15.11810329,.00085796,97.4860,162.2951,187.3907,172.7198,0,U,45602,999,33510,.93826367E-4,.1539E-4,0
XINGYUN-2 02,2020-028B,2026-06-18T23:22:52.504320,15.11539371,.00091518,97.5062,175.9342,265.7456,94.2729,0,U,45603,999,33510,.53760778E-4,.848E-5,0
HAIYANG-1D,2020-036A,2026-06-18T22:14:15.842400,14.34173732,.00034854,98.4562,111.5692,123.9176,236.2341,0,U,45721,999,31522,.32601923E-4,.48E-6,0
M2 PATHFINDER,2020-037E,2026-06-18T18:37:16.978944,15.04680225,.00125783,97.8146,1.0255,141.5732,218.6392,0,U,45727,999,32573,.93452203E-4,.1252E-4,0
GAOFEN DUOMO (GFDM),2020-042A,2026-06-18T23:15:19.185984,14.76880721,.00124183,97.7742,229.7904,69.9017,290.3529,0,U,45856,999,32127,.13625413E-4,.47E-6,0
ZIYUAN 3-03 (ZY 3-03),2020-051A,2026-06-18T23:02:37.881888,15.21266346,.00027074,97.2832,237.6288,336.9747,23.1367,0,U,45939,999,32761,.86232058E-4,.186E-4,0
NEMO-HD,2020-061F,2026-06-18T22:38:56.531040,15.44623443,.00021861,97.1915,231.8790,79.6746,280.4750,0,U,46277,999,32225,.18688344E-3,.8613E-4,0
3CAT-5A,2020-061W,2026-06-18T22:10:07.148640,15.46142951,.00033294,97.2400,232.8140,113.2242,246.9359,0,U,46292,999,32129,.2655901E-3,.12937E-3,0
3CAT-5B,2020-061X,2026-06-18T21:44:05.419392,15.47525496,.00034053,97.2389,233.7819,111.8320,248.3293,0,U,46293,999,32132,.2768716E-3,.14152E-3,0
NAPA-1,2020-061BA,2026-06-18T22:47:17.882592,15.68182182,.00015447,97.2459,244.1868,174.8814,185.2464,0,U,46320,999,32201,.49784489E-3,.55605E-3,0
JILIN-1 GAOFEN 3E,2020-065D,2026-06-18T22:47:41.383392,15.63809514,.00128907,97.2239,222.5998,151.5727,208.6239,0,U,46457,999,32003,.55353815E-3,.52123E-3,0
JILIN-1 GAOFEN 3F,2020-065E,2026-06-18T21:55:46.579584,15.61053023,.00144526,97.2193,219.8903,140.6149,219.6162,0,U,46458,999,31997,.50318195E-3,.42558E-3,0
JILIN-1 GAOFEN 3G,2020-065F,2026-06-18T17:45:25.905024,15.71466701,.00078808,97.2259,226.5428,59.0840,301.1197,0,U,46459,999,32018,.61306452E-3,.78783E-3,0
JILIN-1 GAOFEN 3H,2020-065G,2026-06-18T21:45:10.576224,15.67992883,.00033022,97.2205,223.0328,338.0957,22.0163,0,U,46460,999,32015,.5451548E-3,.60481E-3,0
HAIYANG-2C,2020-066A,2026-06-18T23:21:20.223936,13.83376423,.00088518,65.9954,210.8377,237.9125,122.1084,0,U,46469,999,28974,.13200837E-3,.64E-6,0
HJ-2A,2020-067A,2026-06-18T22:15:07.530336,14.76518699,.00023332,97.8829,248.2586,258.4985,101.5963,0,U,46478,999,30851,.1097375E-3,.715E-5,0
HJ-2B,2020-067B,2026-06-18T23:08:10.167648,14.76558235,.00013115,97.8893,249.3175,100.9611,259.1747,0,U,46479,999,30852,.9245543E-5,.15E-6,0
GONETS-M 17,2020-068A,2026-06-18T23:31:44.432832,12.42873454,.00230114,82.4986,346.3862,33.7542,326.4997,0,U,46486,999,25938,.42951242E-3,.69E-6,0
GONETS-M 18,2020-068B,2026-06-18T22:39:24.333696,12.42873440,.00202473,82.4940,345.5261,30.5698,329.6558,0,U,46487,999,25936,-.23962411E-3,-.23E-6,0
